NORAD_CAT_ID,OBJECT_NAME,OBJECT_TYPE,EPOCH,MEAN_MOTION,ECCENTRICITY,INCLINATION,RA_OF_ASC_NODE,ARG_OF_PERICENTER,MEAN_ANOMALY,BSTAR,MEAN_MOTION_DOT,MEAN_MOTION_DDOT,TLE_LINE0,TLE_LINE1,TLE_LINE2,SEMIMAJOR_AXIS,PERIOD,APOGEE,PERIGEE,DECAYED
49152.0,STARLINK-3081,PAYLOAD,2022-05-06 14:00:01,15.172893099999998,0.0003295,70.0,191.8575,286.0658,301.5499,-0.038714,-0.00720595,0.0,0 STARLINK-3081,1 49152U 21082Y   22126.58334491 -.00720595  00000-0 -38714-1 0  9998,2 49152  70.0000 191.8575 0003295 286.0658 301.5499 15.17289310 37930,6892.174,94.906,516.31,511.768,0.0
49152.0,STARLINK-3081,PAYLOAD,2022-05-07 14:00:01,15.15757021,0.0003278,70.0,189.2667,280.8888,4.622,-0.040498,-0.00721401,0.0,0 STARLINK-3081,1 49152U 21082Y   22127.58334491 -.00721401  00000-0 -40498-1 0  9998,2 49152  70.0000 189.2667 0003278 280.8888   4.6220 15.15757021 38088,6896.818,95.002,520.944,516.422,0.0
49152.0,STARLINK-3081,PAYLOAD,2022-05-07 22:00:00,15.15247346,0.0003269,70.0001,188.4044,278.347,25.2366,-0.041275,-0.00724437,0.0,0 STARLINK-3081,1 49152U 21082Y   22127.91667824 -.00724437  00000-0 -41275-1 0  9990,2 49152  70.0001 188.4044 0003269 278.3470  25.2366 15.15247346  3646,6898.365,95.034,522.485,517.975,0.0
49152.0,STARLINK-3081,PAYLOAD,2022-05-08 14:00:01,15.14224297,0.0003369,70.0,186.682,280.7144,57.1767,-0.042313,-0.00721649,0.0,0 STARLINK-3081,1 49152U 21082Y   22128.58334491 -.00721649  00000-0 -42313-1 0  9991,2 49152  70.0000 186.6820 0003369 280.7144  57.1767 15.14224297 38234,6901.472,95.098,525.6619999999998,521.011,0.0
49152.0,STARLINK-3081,PAYLOAD,2022-05-08 22:00:00,15.13713627,0.0003362,70.0,185.8218,278.4998,75.6261,-0.043034,-0.00723325,0.0,0 STARLINK-3081,1 49152U 21082Y   22128.91667824 -.00723325  00000-0 -43034-1 0  9991,2 49152  70.0000 185.8218 0003362 278.4998  75.6261 15.13713627  3640,6903.024,95.13,527.2090000000002,522.568,0.0
49152.0,STARLINK-3081,PAYLOAD,2022-05-09 14:00:01,15.12690637,0.0003468,70.0,184.1033,284.627,100.1926,-0.044105,-0.00720536,0.0,0 STARLINK-3081,1 49152U 21082Y   22129.58335648 -.00720536  00000-0 -44105-1 0  9992,2 49152  70.0000 184.1033 0003468 284.6270 100.1926 15.12690637 38381,6906.136,95.195,530.396,525.605,0.0
49152.0,STARLINK-3081,PAYLOAD,2022-05-09 22:00:00,15.12179915,0.0003363,70.0001,183.2452,277.9389,121.214,-0.044834,-0.00721937,0.0,0 STARLINK-3081,1 49152U 21082Y   22129.91667824 -.00721937  00000-0 -44834-1 0  9998,2 49152  70.0001 183.2452 0003363 277.9389 121.2140 15.12179915  3630,6907.69,95.227,531.878,527.232,0.0
49152.0,STARLINK-3081,PAYLOAD,2022-05-10 14:00:01,15.11156486,0.0003466,70.0,181.5308,285.5292,140.578,-0.045892,-0.0071846,0.0,0 STARLINK-3081,1 49152U 21082Y   22130.58334491 -.00718460  00000-0 -45892-1 0  9996,2 49152  70.0000 181.5308 0003466 285.5292 140.5780 15.11156486 38530,6910.809,95.291,535.069,530.279,0.0
49152.0,STARLINK-3081,PAYLOAD,2022-05-10 20:04:29,15.12170007,0.0003166,69.9965,180.8712,301.8398,58.2459,-0.012046,-0.00202641,0.0,0 STARLINK-3081,1 49152U 21082Y   22130.83644899 -.00202641  00000-0 -12046-1 0  9994,2 49152  69.9965 180.8712 0003166 301.8398  58.2459 15.12170007 38561,6907.721,95.227,531.773,527.399,0.0
49152.0,STARLINK-3081,PAYLOAD,2022-05-11 22:00:00,15.09113418,0.0003362,70.0001,178.1104,284.0302,188.6312,-0.048675,-0.00720063,0.0,0 STARLINK-3081,1 49152U 21082Y   22131.91667824 -.00720063  00000-0 -48675-1 0  9997,2 49152  70.0001 178.1104 0003362 284.0302 188.6312 15.09113418 38739,6917.045,95.42,541.235,536.5840000000002,0.0
49152.0,STARLINK-3081,PAYLOAD,2022-05-12 14:00:01,15.08089201,0.0003317,70.0,176.4041,284.1607,208.102,-0.049749,-0.0071587,0.0,0 STARLINK-3081,1 49152U 21082Y   22132.58334491 -.00715870  00000-0 -49749-1 0  9995,2 49152  70.0000 176.4041 0003317 284.1607 208.1020 15.08089201  1306,6920.176,95.485,544.337,539.746,0.0
49152.0,STARLINK-3081,PAYLOAD,2022-05-12 22:00:00,15.07580411,0.0003328,70.0,175.5521,285.6772,215.4656,-0.050725,-0.00719578,0.0,0 STARLINK-3081,1 49152U 21082Y   22132.91667824 -.00719578  00000-0 -50725-1 0  9996,2 49152  70.0000 175.5521 0003328 285.6772 215.4656 15.07580411  1304,6921.733,95.517,545.9019999999998,541.295,0.0
49152.0,STARLINK-3081,PAYLOAD,2022-05-13 04:00:00,15.071993,0.0003586,70.0003,174.9135,290.0893,127.3114,-0.051496,-0.00722774,0.0,0 STARLINK-3081,1 49152U 21082Y   22133.16667824 -.00722774  00000-0 -51496-1 0  9992,2 49152  70.0003 174.9135 0003586 290.0893 127.3114 15.07199300 38922,6922.9,95.541,547.247,542.2819999999998,0.0
49152.0,STARLINK-3081,PAYLOAD,2022-05-13 14:00:01,15.06556226,0.0003188999999999,70.0,173.8499,279.8585,237.209,-0.051853,-0.00715641,0.0,0 STARLINK-3081,1 49152U 21082Y   22133.58334491 -.00715641  00000-0 -51853-1 0  9991,2 49152  70.0000 173.8499 0003189 279.8585 237.2090 15.06556226  1301,6924.87,95.582,548.943,544.526,0.0
49152.0,STARLINK-3081,PAYLOAD,2022-05-13 22:00:00,15.06047371,0.0003154,70.0,172.9999,276.8462,247.2631,-0.052849,-0.00719144,0.0,0 STARLINK-3081,1 49152U 21082Y   22133.91667824 -.00719144  00000-0 -52849-1 0  9995,2 49152  70.0000 172.9999 0003154 276.8462 247.2631 15.06047371  1307,6926.43,95.615,550.479,546.11,0.0
49152.0,STARLINK-3081,PAYLOAD,2022-05-14 06:00:00,15.05538946,0.0003292,70.0003,172.1505,285.7008,244.8378,-0.053981,-0.00724178,0.0,0 STARLINK-3081,1 49152U 21082Y   22134.25001157 -.00724178  00000-0 -53981-1 0  9995,2 49152  70.0003 172.1505 0003292 285.7008 244.8378 15.05538946 39093,6927.989000000001,95.647,552.135,547.573,0.0
49152.0,STARLINK-3081,PAYLOAD,2022-05-14 14:00:01,15.05023591,0.0003194,70.0,171.3017,281.4038,254.9533,-0.054074,-0.00716001,0.0,0 STARLINK-3081,1 49152U 21082Y   22134.58334491 -.00716001  00000-0 -54074-1 0  9991,2 49152  70.0000 171.3017 0003194 281.4038 254.9533 15.05023591  1309,6929.57,95.68,553.649,549.222,0.0
49152.0,STARLINK-3081,PAYLOAD,2022-05-14 22:00:00,15.04514272,0.0003171,70.0,170.4537,279.7431,261.8176,-0.055038,-0.00718663,0.0,0 STARLINK-3081,1 49152U 21082Y   22134.91667824 -.00718663  00000-0 -55038-1 0  9994,2 49152  70.0000 170.4537 0003171 279.7431 261.8176 15.04514272  1308,6931.134,95.712,555.197,550.8009999999998,0.0
49152.0,STARLINK-3081,PAYLOAD,2022-05-15 12:00:00,15.03619707,0.0003246,70.0002,168.9712,279.7851,179.4091,-0.056373,-0.00718681,0.0,0 STARLINK-3081,1 49152U 21082Y   22135.50001157 -.00718681  00000-0 -56373-1 0  9994,2 49152  70.0002 168.9712 0003246 279.7851 179.4091 15.03619707 39271,6933.8830000000025,95.769,557.999,553.497,0.0
49152.0,STARLINK-3081,PAYLOAD,2022-05-15 14:00:01,15.03491158,0.0003143999999999,69.9999,168.7595,278.848,271.3461,-0.056405,-0.00716752,0.0,0 STARLINK-3081,1 49152U 21082Y   22135.58335648 -.00716752  00000-0 -56405-1 0  9990,2 49152  69.9999 168.7595 0003144 278.8480 271.3461 15.03491158  1309,6934.278,95.777,558.323,553.9630000000002,0.0
49152.0,STARLINK-3081,PAYLOAD,2022-05-15 22:00:00,15.02981212,0.0003111,70.0,167.9136,276.3534,277.1435,-0.057312,-0.00718324,0.0,0 STARLINK-3081,1 49152U 21082Y   22135.91667824 -.00718324  00000-0 -57312-1 0  9996,2 49152  70.0000 167.9136 0003111 276.3534 277.1435 15.02981212  1303,6935.847,95.81,559.869,555.554,0.0
49152.0,STARLINK-3081,PAYLOAD,2022-05-16 14:00:01,15.01841549,0.0003178,69.9999,166.2229,277.5072,280.9047,-0.030184,-0.00374577,0.0,0 STARLINK-3081,1 49152U 21082Y   22136.58334491 -.00374577  00000-0 -30184-1 0  9997,2 49152  69.9999 166.2229 0003178 277.5072 280.9047 15.01841549  1303,6939.355,95.882,563.425,559.015,0.0
49152.0,STARLINK-3081,PAYLOAD,2022-05-16 20:00:01,15.0156859,0.0003203,70.0,165.5894,277.9382,191.6577,-4.4409e-05,-6.72e-06,0.0,0 STARLINK-3081,1 49152U 21082Y   22136.83334491 -.00000672  00000-0 -44409-4 0  9995,2 49152  70.0000 165.5894 0003203 277.9382 191.6577 15.01568590 39484,6940.196,95.9,564.284,559.8380000000002,0.0
49152.0,STARLINK-3081,PAYLOAD,2022-05-16 22:00:00,15.01567748,0.0003157,69.9999,165.3783,277.0128,282.925,0.00017388,2.162e-05,0.0,0 STARLINK-3081,1 49152U 21082Y   22136.91667824  .00002162  00000-0  17388-3 0  9992,2 49152  69.9999 165.3783 0003157 277.0128 282.9250 15.01567748  1306,6940.198,95.9,564.254,559.872,0.0
49152.0,STARLINK-3081,PAYLOAD,2022-05-17 06:00:00,15.01637402,0.0003366,69.9986,164.5285,279.2706,282.1285,-0.0086585,-0.00110967,0.0,0 STARLINK-3081,1 49152U 21082Y   22137.25001157 -.00110967  00000-0 -86585-2 0  9990,2 49152  69.9986 164.5285 0003366 279.2706 282.1285 15.01637402 39540,6939.984,95.895,564.185,559.513,0.0
49152.0,STARLINK-3081,PAYLOAD,2022-05-17 12:00:00,15.0158641,0.0003408,69.9983,163.892,282.8089,189.6569,0.00070879,9.123e-05,0.0,0 STARLINK-3081,1 49152U 21082Y   22137.50001157  .00009123  00000-0  70879-3 0  9997,2 49152  69.9983 163.8920 0003408 282.8089 189.6569 15.01586410 39588,6940.141,95.899,564.371,559.641,0.0
49152.0,STARLINK-3081,PAYLOAD,2022-05-17 14:00:01,15.01613778,0.0003364,69.9983,163.6808,282.5806,280.2892,-0.0045582,-0.00058857,0.0,0 STARLINK-3081,1 49152U 21082Y   22137.58335648 -.00058857  00000-0 -45582-2 0  9992,2 49152  69.9983 163.6808 0003364 282.5806 280.2892 15.01613778  1300,6940.057,95.897,564.256,559.587,0.0
49152.0,STARLINK-3081,PAYLOAD,2022-05-17 20:00:01,15.01554397,0.0003258,69.9988,163.0471,278.319,195.5527,-8.4678e-06,-2.06e-06,0.0,0 STARLINK-3081,1 49152U 21082Y   22137.83334491 -.00000206  00000-0 -84678-5 0  9992,2 49152  69.9988 163.0471 0003258 278.3190 195.5527 15.01554397 39637,6940.24,95.901,564.366,559.8430000000002,0.0
49152.0,STARLINK-3081,PAYLOAD,2022-05-17 22:00:01,15.01522286,0.0003246,69.9987,162.8359,277.1677,287.1148,0.0053256,0.00069651,0.0,0 STARLINK-3081,1 49152U 21082Y   22137.91668981  .00069651  00000-0  53256-2 0  9997,2 49152  69.9987 162.8359 0003246 277.1677 287.1148 15.01522286  1304,6940.339,95.903,564.456,559.951,0.0
